{
    "links": {
        "self": "http://www.neowsapp.com/rest/v1/neo/3740809?api_key=iIulBulltgU6a56xZRHN4H3l9WmuAYTsLGpBGhQ2"
    },
    "id": "3740809",
    "neo_reference_id": "3740809",
    "name": "(2016 BF1)",
    "designation": "2016 BF1",
    "nasa_jpl_url": "http://ssd.jpl.nasa.gov/sbdb.cgi?sstr=3740809",
    "absolute_magnitude_h": 25.4,
    "estimated_diameter": {
        "kilometers": {
            "estimated_diameter_min": 0.022108281,
            "estimated_diameter_max": 0.0494356193
        },
        "meters": {
            "estimated_diameter_min": 22.1082810359,
            "estimated_diameter_max": 49.435619262
        },
        "miles": {
            "estimated_diameter_min": 0.0137374447,
            "estimated_diameter_max": 0.0307178602
        },
        "feet": {
            "estimated_diameter_min": 72.5337327539,
            "estimated_diameter_max": 162.1903570994
        }
    },
    "is_potentially_hazardous_asteroid": false,
    "close_approach_data": [
        {
            "close_approach_date": "1950-11-08",
            "close_approach_date_full": "1950-Nov-08 04:40",
            "epoch_date_close_approach": -604264800000,
            "relative_velocity": {
                "kilometers_per_second": "7.7061131672",
                "kilometers_per_hour": "27742.0074020881",
                "miles_per_hour": "17237.8045438141"
            },
            "miss_distance": {
                "astronomical": "0.0245979874",
                "lunar": "9.5686170986",
                "kilometers": "3679806.521326838",
                "miles": "2286525.7447448444"
            },
            "orbiting_body": "Earth"
        },
        {
            "close_approach_date": "2016-01-12",
            "close_approach_date_full": "2016-Jan-12 13:56",
            "epoch_date_close_approach": 1452606960000,
            "relative_velocity": {
                "kilometers_per_second": "8.211264022",
                "kilometers_per_hour": "29560.5504792257",
                "miles_per_hour": "18367.7764908278"
            },
            "miss_distance": {
                "astronomical": "0.0106787919",
                "lunar": "4.1540500491",
                "kilometers": "1597524.522413253",
                "miles": "992655.7081707714"
            },
            "orbiting_body": "Earth"
        },
        {
            "close_approach_date": "2074-05-28",
            "close_approach_date_full": "2074-May-28 23:47",
            "epoch_date_close_approach": 3294776820000,
            "relative_velocity": {
                "kilometers_per_second": "12.3419054848",
                "kilometers_per_hour": "44430.8597451709",
                "miles_per_hour": "27607.6083788813"
            },
            "miss_distance": {
                "astronomical": "0.0369246582",
                "lunar": "14.3636920398",
                "kilometers": "5523850.217198034",
                "miles": "3432361.3642555092"
            },
            "orbiting_body": "Mars"
        }
    ],
    "orbital_data": {
        "orbit_id": "6",
        "orbit_determination_date": "2017-04-06 08:28:58",
        "first_observation_date": "2016-01-19",
        "last_observation_date": "2016-02-06",
        "data_arc_in_days": 18,
        "observations_used": 28,
        "orbit_uncertainty": "8",
        "minimum_orbit_intersection": ".00550569",
        "jupiter_tisserand_invariant": "4.060",
        "epoch_osculation": "2457409.5",
        "eccentricity": ".4588188293165369",
        "semi_major_axis": "1.710896171750839",
        "inclination": ".5615068441901807",
        "ascending_node_longitude": "4.938831139019859",
        "orbital_period": "817.3986360323989",
        "perihelion_distance": ".9259047931459741",
        "perihelion_argument": "72.34413294922608",
        "aphelion_distance": "2.495887550355703",
        "perihelion_time": "2457373.213950078031",
        "mean_anomaly": "15.98115949313998",
        "mean_motion": ".4404215815032639",
        "equinox": "J2000",
        "orbit_class": {
            "orbit_class_type": "APO",
            "orbit_class_description": "Near-Earth asteroid orbits which cross the Earth’s orbit similar to that of 1862 Apollo",
            "orbit_class_range": "a (semi-major axis) > 1.0 AU; q (perihelion) < 1.017 AU"
        }
    },
    "is_sentry_object": false
}